[Satellite]
VERSION=1.1
NAME=MMS 2
NICKNAME=MMS 2
TLE1=1 40483U 15011B   18010.87500000 -.00001974  00000-0  00000-0 0  9999
TLE2=2 40483  18.2895 309.4018 9050306 162.3017 147.2006  0.35529259  8381
